OBJECT_NAME,OBJECT_ID,EPOCH,MEAN_MOTION,ECCENTRICITY,INCLINATION,RA_OF_ASC_NODE,ARG_OF_PERICENTER,MEAN_ANOMALY,EPHEMERIS_TYPE,CLASSIFICATION_TYPE,NORAD_CAT_ID,ELEMENT_SET_NO,REV_AT_EPOCH,BSTAR,MEAN_MOTION_DOT,MEAN_MOTION_DDOT
STARLINK-36174,2025-303D,2026-05-14T12:17:53.107872,15.27596012,.00012693,43.0001,298.8351,243.0470,117.0252,0,U,67166,999,2280,.4306698E-3,.11613E-3,0
STARLINK-36198,2025-303E,2026-05-14T19:31:52.218912,15.27596863,.00022907,43.0031,297.6572,269.9302,90.1288,0,U,67167,999,2284,.60549553E-3,.16446E-3,0
STARLINK-35903,2025-303F,2026-05-14T12:14:11.054688,15.27602409,.00012284,42.9997,298.8141,222.9821,137.0935,0,U,67168,999,2280,.5514944E-3,.14955E-3,0
STARLINK-35839,2025-303G,2026-05-14T18:01:24.705696,15.27600152,.00017087,43.0025,298.0460,274.7125,85.3531,0,U,67169,999,2283,.62385848E-3,.16955E-3,0
STARLINK-35863,2025-303H,2026-05-14T19:20:45.858048,15.27597550,.00022006,43.0045,297.6025,279.0579,81.0023,0,U,67170,999,2284,.4789268E-3,.12947E-3,0
STARLINK-35771,2025-303J,2026-05-14T21:02:19.434912,15.27594838,.00008739,43.0022,297.2700,251.1349,108.9408,0,U,67171,999,2285,.4327634E-3,.11671E-3,0
STARLINK-35762,2025-303K,2026-05-14T20:58:37.883712,15.27596602,.00005507,42.9968,297.2518,13.7427,346.3440,0,U,67172,999,2285,.4352144E-3,.11739E-3,0
STARLINK-36183,2025-303L,2026-05-14T12:56:44.616192,15.27591951,.00024682,42.9971,299.0338,284.8776,75.1802,0,U,67173,999,2280,.57473655E-3,.15593E-3,0
STARLINK-36210,2025-303M,2026-05-14T19:04:06.901248,15.27590737,.00022797,43.0026,297.5104,273.4351,86.6240,0,U,67174,999,2284,.4080574E-3,.10987E-3,0
STARLINK-35756,2025-303N,2026-05-14T12:43:47.100000,15.27597508,.00019964,43.0010,298.9635,271.5170,88.5453,0,U,67175,999,2280,.68486785E-3,.18642E-3,0
STARLINK-35785,2025-303P,2026-05-14T12:36:23.451552,15.27585469,.00020992,43.0022,298.9243,273.6034,86.4578,0,U,67176,999,2280,.37078853E-3,.9957E-4,0
STARLINK-35853,2025-303Q,2026-05-14T12:41:56.203872,15.27596773,.00021866,42.9997,298.9511,273.6491,86.4111,0,U,67177,999,2280,.63011333E-3,.17127E-3,0
STARLINK-35878,2025-303R,2026-05-14T17:13:18.588864,15.27583929,.00014564,43.0033,297.7879,264.0275,96.0411,0,U,67178,999,2283,.46531208E-3,.12566E-3,0
STARLINK-35793,2025-303S,2026-05-14T18:43:45.430752,15.27593330,.00015612,43.0041,297.4013,261.2142,98.8533,0,U,67179,999,2284,.46381503E-3,.12528E-3,0
STARLINK-35876,2025-303T,2026-05-14T17:07:45.042528,15.27599035,.00006854,43.0008,297.7578,161.8095,198.2781,0,U,67180,999,2283,.39638811E-3,.10668E-3,0
STARLINK-35766,2025-303U,2026-05-14T10:36:19.512864,15.27581702,.00012652,43.0025,299.1605,267.7451,92.3256,0,U,67181,999,2279,.2345535E-3,.6198E-4,0
STARLINK-35782,2025-303V,2026-05-14T11:55:40.971072,15.27596455,.000108,42.9988,298.7112,266.0095,94.0633,0,U,67182,999,2280,.38927899E-3,.10471E-3,0
STARLINK-35719,2025-303W,2026-05-14T18:21:33.515136,15.27616616,.00017139,43.0028,297.2818,269.4592,90.6064,0,U,67183,999,2284,.50017053E-3,.13542E-3,0
STARLINK-35910,2025-303X,2026-05-14T18:06:44.933472,15.27595562,.00017695,43.0021,297.2035,269.8788,90.1860,0,U,67184,999,2284,.45652376E-3,.12327E-3,0
STARLINK-35859,2025-303Y,2026-05-14T11:57:30.858048,15.27591791,.00015369,42.9949,298.7124,177.3804,182.7056,0,U,67185,999,2280,.33144943E-3,.8873E-4,0
STARLINK-35857,2025-303Z,2026-05-14T12:19:43.749984,15.27600226,.00015588,42.9996,298.8342,228.5582,131.5136,0,U,67186,999,2280,.4367691E-3,.11783E-3,0
STARLINK-35880,2025-303AA,2026-05-14T12:08:37.724352,15.27594089,.00013663,43.0038,298.7802,275.0245,85.0451,0,U,67187,999,2280,.39053944E-3,.10505E-3,0
STARLINK-35675,2025-303AB,2026-05-14T18:05:06.696672,15.27598675,.00019244,43.0022,298.0572,274.1121,85.9511,0,U,67188,999,2283,.63272568E-3,.172E-3,0
STARLINK-35889,2025-303AC,2026-05-14T21:04:10.417440,15.27582550,.00020625,43.0015,297.2743,293.3742,66.6893,0,U,67189,999,2285,.52820503E-3,.14302E-3,0
STARLINK-35888,2025-303AD,2026-05-14T17:41:03.420096,15.27603232,.00023154,43.0025,297.9313,275.6410,84.4177,0,U,67190,999,2283,.6520355E-3,.17737E-3,0
STARLINK-35716,2025-303AE,2026-05-14T11:46:38.487936,15.27585079,.00012412,42.9993,299.5236,271.3574,88.7136,0,U,67191,999,2279,.41760299E-3,.11249E-3,0
STARLINK-36182,2025-304A,2026-05-15T01:01:50.302848,14.98334068,.00021385,70.0040,7.1710,262.8296,97.2620,0,U,67192,999,2379,.27451956E-3,.3184E-4,0
STARLINK-36279,2025-304B,2026-05-15T00:55:35.165280,14.98341799,.00019653,70.0035,7.1476,269.2503,90.8431,0,U,67193,999,2382,.24521432E-3,.2835E-4,0
STARLINK-36284,2025-304C,2026-05-15T01:25:38.711712,14.98325360,.0003138,70.0022,7.2240,264.0176,96.0625,0,U,67194,999,2382,.3359566E-3,.3917E-4,0
STARLINK-36291,2025-304D,2026-05-15T01:49:54.782400,14.98321228,.00032019,70.0017,7.2778,270.6659,89.4133,0,U,67195,999,2382,.27074833E-4,.23E-5,0
STARLINK-36239,2025-304E,2026-05-15T01:43:42.043296,14.98337742,.00028045,70.0019,7.2692,267.9804,92.1034,0,U,67196,999,2382,.3597063E-3,.4202E-4,0
STARLINK-36283,2025-304F,2026-05-15T00:31:31.818720,14.98341370,.00023529,70.0020,7.0870,270.2354,89.8535,0,U,67197,999,2382,.29533257E-3,.3434E-4,0
STARLINK-36267,2025-304G,2026-05-15T01:13:38.870112,14.98338482,.00025678,70.0019,7.1912,266.2497,93.8368,0,U,67198,999,2379,.37264928E-3,.4357E-4,0
STARLINK-36268,2025-304H,2026-05-15T01:25:52.847616,14.98333437,.00024913,70.0024,7.2165,266.8130,93.2744,0,U,67199,999,2381,.34321667E-3,.4005E-4,0
STARLINK-36270,2025-304J,2026-05-15T00:49:50.522592,14.98337046,.00026935,70.0017,7.1385,275.7310,84.3542,0,U,67200,999,2382,.50730994E-3,.5966E-4,0
STARLINK-36262,2025-304K,2026-05-15T01:37:39.451872,14.98338214,.0002376,70.0016,7.2503,268.6263,91.4624,0,U,67201,999,2382,.24766061E-3,.2864E-4,0
STARLINK-36263,2025-304L,2026-05-15T01:19:39.328320,14.98328424,.00027667,70.0033,7.2060,269.7204,90.3638,0,U,67202,999,2382,.4214073E-3,.4939E-4,0
STARLINK-36224,2025-304M,2026-05-15T01:07:38.221824,14.98326221,.00021977,70.0020,7.1719,262.4253,97.6657,0,U,67203,999,2382,.41733204E-3,.4889E-4,0
STARLINK-36185,2025-304N,2026-05-15T00:43:33.580992,14.98337480,.00026789,70.0020,7.1163,267.0606,93.0247,0,U,67204,999,2382,.24819248E-3,.287E-4,0
STARLINK-36197,2025-304P,2026-05-15T02:01:40.313568,14.98328823,.00028007,70.0016,6.9063,267.5903,92.4936,0,U,67205,999,2380,.32051916E-3,.3733E-4,0
STARLINK-36056,2025-304Q,2026-05-15T01:37:54.851808,14.98344479,.00029824,70.0017,7.2477,268.0958,91.9860,0,U,67206,999,2379,.33267298E-3,.388E-4,0
STARLINK-36225,2025-304R,2026-05-15T01:13:53.087232,14.98336755,.00026954,70.0015,7.1888,266.0116,94.0735,0,U,67207,999,2382,.37816901E-3,.4423E-4,0
STARLINK-36265,2025-304S,2026-05-15T01:31:38.773344,14.98339139,.00026102,70.0020,7.2372,269.4773,90.6087,0,U,67208,999,2382,.35003438E-3,.4087E-4,0
STARLINK-36226,2025-304T,2026-05-15T01:49:40.633536,14.98327513,.00029309,70.0020,7.2801,268.9331,91.1492,0,U,67209,999,2382,.11991297E-3,.1338E-4,0
STARLINK-36173,2025-304U,2026-05-15T01:01:35.733216,14.98337765,.00018597,70.0048,7.1583,273.8847,86.2100,0,U,67210,999,2382,.33487604E-3,.3906E-4,0
STARLINK-36280,2025-304V,2026-05-15T00:49:34.444416,14.98345113,.00025117,70.0012,7.1356,263.5227,96.5647,0,U,67211,999,2382,.1825729E-3,.2087E-4,0
STARLINK-36213,2025-304W,2026-05-15T00:37:32.966400,14.98334378,.00024599,70.0019,7.1005,270.2040,89.8838,0,U,67212,999,2382,.16957908E-3,.1931E-4,0
STARLINK-36199,2025-304X,2026-05-15T01:55:38.886816,14.98338086,.00029469,70.0019,6.8889,270.7621,89.3201,0,U,67213,999,2383,.21806608E-3,.251E-4,0
STARLINK-36203,2025-304Y,2026-05-15T01:43:54.251616,14.98338464,.000279,70.0016,7.2622,267.0720,93.0120,0,U,67214,999,2382,.25620894E-3,.2966E-4,0
STARLINK-36221,2025-304Z,2026-05-15T01:31:53.095872,14.98338516,.00027383,70.0011,7.2329,267.6648,92.4198,0,U,67215,999,2382,.27476291E-3,.3188E-4,0
STARLINK-36212,2025-304AA,2026-05-15T01:19:53.408064,14.98325862,.00025229,70.0016,7.1991,269.4015,90.6855,0,U,67216,999,2382,.23182924E-3,.2674E-4,0
STARLINK-36216,2025-304AB,2026-05-15T01:07:50.858688,14.98338154,.00025692,70.0030,7.1689,272.6974,87.3891,0,U,67217,999,2381,.37175437E-3,.4346E-4,0
STARLINK-36211,2025-304AC,2026-05-15T00:55:49.260576,14.98339736,.00025818,70.0014,7.1428,266.8625,93.2239,0,U,67218,999,2379,.2528868E-3,.2926E-4,0
DISKSAT C,2025-305A,2026-05-14T14:59:42.690624,15.09104446,.00059642,45.0026,261.1576,318.1661,41.8758,0,U,67219,999,2225,.32555719E-3,.5003E-4,0
DISKSAT B,2025-305B,2026-05-14T15:50:17.093184,15.08491986,.00046346,45.0030,261.4040,317.9096,42.1424,0,U,67220,999,2225,.22120898E-3,.3261E-4,0
DISKSAT D,2025-305C,2026-05-15T07:46:28.393536,15.08605349,.00050204,45.0032,257.9101,328.7581,31.2996,0,U,67221,999,2235,.29624803E-3,.4466E-4,0
DISKSAT A,2025-305D,2026-05-14T08:58:18.350400,15.09086857,.000541,45.0029,262.6640,324.0698,35.9814,0,U,67222,999,2220,.39078156E-3,.6052E-4,0
TJS-23,2025-306A,2026-05-14T16:38:12.207840,1.00276453,.0005078,5.6641,297.6624,147.1566,212.7592,0,U,67226,999,155,0,.24E-6,0
QPS-SAR-15 (SUKUNAMI-I),2025-307A,2026-05-14T23:41:15.825408,14.98705197,.0008946,42.0071,50.1738,145.6218,214.5187,0,U,67228,999,2170,.23957769E-3,.2749E-4,0
SPACEMOBILE-006,2025-309A,2026-05-15T04:46:11.474688,15.18348862,.00118445,52.9960,122.7050,36.2937,323.8857,0,U,67232,999,2158,.48149205E-4,.68E-5,0
OBZOR-R 1,2025-310A,2026-05-15T00:10:17.900832,14.75874301,.00015312,97.9642,142.7721,75.1572,284.9807,0,U,67234,999,2073,.15290923E-4,.55E-6,0
HULIANWANG DIGUI-128,2025-311A,2026-05-14T17:33:54.182304,13.29321833,.00009046,50.0081,235.5259,208.7085,151.3738,0,U,67236,999,1889,.50557091E-4,-.101E-5,0
HULIANWANG DIGUI-129,2025-311B,2026-05-14T14:09:24.087168,13.29323216,.00008482,50.0070,236.0949,206.5093,153.5736,0,U,67237,999,1887,.39400673E-4,-.106E-5,0
HULIANWANG DIGUI-130,2025-311C,2026-05-15T07:35:54.378240,13.29321895,.00009469,50.0052,233.8990,211.0461,149.0356,0,U,67238,999,1896,.64040368E-4,-.94E-6,0
